ONEWEB-0264             
1 48982U 21060R   23303.88647281  .00002926  00000+0  76203-2 0  9993
2 48982  87.9080  59.9071 0002274  94.1352 266.0039 13.16580158113239
ONEWEB-0266             
1 48984U 21060T   23303.83261482 -.00000292  00000+0 -79662-3 0  9994
2 48984  87.9074  59.9029 0001601 103.9744 256.1565 13.16593610113213
ONEWEB-0267             
1 48985U 21060U   23303.84318329  .00000054  00000+0  10886-3 0  9996
2 48985  87.9074  59.9017 0001692  84.3523 275.7801 13.16591792113228
ONEWEB-0268             
1 48986U 21060V   23303.88750961 -.00000002  00000+0 -40097-4 0  9996
2 48986  87.9081  59.8967 0001683  99.0041 261.1280 13.16599443113498
ONEWEB-0269             
1 48987U 21060W   23303.86850761  .00000104  00000+0  23840-3 0  9991
2 48987  87.9073  59.9276 0001789 101.4021 258.7311 13.16596656113262
ONEWEB-0270             
1 48988U 21060X   23303.88539654  .00000010  00000+0 -81957-5 0  9991
2 48988  87.9075  59.9096 0001116  79.7738 280.3519 13.16593178114618
ONEWEB-0271             
1 48989U 21060Y   23303.87273600  .00000026  00000+0  35698-4 0  9993
2 48989  87.9075  59.8875 0001523  83.4488 276.6817 13.16594100113309
ONEWEB-0272             
1 48990U 21060Z   23303.81996238 -.00000071  00000+0 -22061-3 0  9999
2 48990  87.9077  59.9229 0001589  88.3908 271.7405 13.16592858113240
